[{"OBJECT_NAME":"ICESAT-2","OBJECT_ID":"2018-070A","EPOCH":"2026-03-09T22:54:12.225888","MEAN_MOTION":15.28328617,"ECCENTRICITY":0.00038245,"INCLINATION":91.9993,"RA_OF_ASC_NODE":264.2397,"ARG_OF_PERICENTER":123.8941,"MEAN_ANOMALY":236.2673,"EPHEMERIS_TYPE":0,"CLASSIFICATION_TYPE":"U","NORAD_CAT_ID":43613,"ELEMENT_SET_NO":999,"REV_AT_EPOCH":41730,"BSTAR":0.00014022643,"MEAN_MOTION_DOT":3.87e-5,"MEAN_MOTION_DDOT":0},{"OBJECT_NAME":"STARLINK-36543","OBJECT_ID":"2026-012Y","EPOCH":"2026-03-09T23:06:20.124288","MEAN_MOTION":15.27583112,"ECCENTRICITY":7.498e-5,"INCLINATION":42.9985,"RA_OF_ASC_NODE":312.8495,"ARG_OF_PERICENTER":251.8821,"MEAN_ANOMALY":108.1949,"EPHEMERIS_TYPE":0,"CLASSIFICATION_TYPE":"U","NORAD_CAT_ID":67515,"ELEMENT_SET_NO":999,"REV_AT_EPOCH":780,"BSTAR":0.00090729604,"MEAN_MOTION_DOT":0.00024791,"MEAN_MOTION_DDOT":0}]
